OBJECT_NAME,OBJECT_ID,EPOCH,MEAN_MOTION,ECCENTRICITY,INCLINATION,RA_OF_ASC_NODE,ARG_OF_PERICENTER,MEAN_ANOMALY,EPHEMERIS_TYPE,CLASSIFICATION_TYPE,NORAD_CAT_ID,ELEMENT_SET_NO,REV_AT_EPOCH,BSTAR,MEAN_MOTION_DOT,MEAN_MOTION_DDOT
STARLINK-3640,2022-025AJ,2026-07-15T22:00:01.999584,15.29342650,.00016716,53.1597,181.8117,83.5591,170.8601,0,U,51988,999,579,.11959066E-2,.34298E-3,0
STARLINK-3642,2022-025AK,2026-07-15T22:35:38.913504,15.34381754,.00011459,53.1610,178.7956,99.7913,260.3219,0,U,51989,999,24048,.41932913E-4,.104E-4,0
STARLINK-3657,2022-025AL,2026-07-15T22:00:01.999584,15.14560512,.00007891,53.1608,163.1492,124.7105,249.7356,0,U,51990,999,579,.2895553E-2,.54131E-3,0
STARLINK-3652,2022-025AM,2026-07-15T08:50:31.805952,15.35404616,.00011041,53.1624,181.6931,60.2938,299.8175,0,U,51991,999,24039,.29768113E-4,.658E-5,0
STARLINK-3643,2022-025AN,2026-07-15T22:00:01.999584,15.35384764,.00012588,53.1611,161.1612,98.5611,279.9626,0,U,51992,999,580,.79151192E-3,.27315E-3,0
STARLINK-3648,2022-025AP,2026-07-15T22:24:05.035104,15.08832701,.00011219,53.1599,183.1430,72.4827,287.6287,0,U,51993,999,24042,-.76364067E-4,-.1503E-4,0
STARLINK-3647,2022-025AQ,2026-07-15T22:00:01.999584,15.11600145,.00011408,53.1594,163.2017,240.1174,186.5021,0,U,51994,999,580,.29954901E-2,.51523E-3,0
STARLINK-3636,2022-025AR,2026-07-15T22:00:01.999584,15.31702453,.00012558,53.1624,160.9054,94.1572,15.6391,0,U,51995,999,574,.51846578E-3,.15759E-3,0
STARLINK-3538,2022-025AS,2026-07-15T22:18:29.518848,15.33552666,.00013228,53.1624,160.6559,95.1721,264.9432,0,U,51996,999,24031,.45312201E-4,.1118E-4,0
STARLINK-3589,2022-025AT,2026-07-15T22:00:01.999584,15.35408803,.00011332,53.1618,160.8785,75.4535,67.9297,0,U,51997,999,580,.43940951E-3,.14982E-3,0
STARLINK-3618,2022-025AU,2026-07-15T22:00:01.999584,15.35321902,.00021458,53.1616,161.4010,71.6185,24.9211,0,U,51998,999,579,.16930998E-2,.58995E-3,0
STARLINK-3653,2022-025AW,2026-07-15T22:10:16.446144,15.09171025,.00015444,53.1604,163.0948,50.8995,309.2134,0,U,52000,999,24028,.24307185E-2,.38966E-3,0
STARLINK-3659,2022-025AX,2026-07-15T22:00:01.999584,15.11962680,.00029021,53.1603,163.2131,89.6841,172.4857,0,U,52001,999,554,.28721932E-2,.49883E-3,0
STARLINK-3668,2022-025AY,2026-07-15T22:25:01.278912,15.09832942,.00047273,53.1595,163.1671,111.0710,249.0788,0,U,52002,999,24028,.71750167E-2,.11906E-2,0
STARLINK-3712,2022-029C,2026-07-15T22:00:01.999584,15.26840287,.00001613,53.1595,232.4736,161.3664,197.4301,0,U,52090,999,574,.26730952E-2,.71779E-3,0
STARLINK-3716,2022-029E,2026-07-15T19:29:26.058624,15.17327036,.00012642,53.1593,233.1990,95.5460,264.5680,0,U,52092,999,24000,.69418341E-4,.1088E-4,0
STARLINK-3673,2022-029F,2026-07-15T13:36:54.186048,15.35399988,.0001288,53.1609,230.4202,64.7629,295.3508,0,U,52093,999,24002,.23032E-4,.423E-5,0
STARLINK-3714,2022-029G,2026-07-15T22:00:01.999584,15.26528630,.0000077,53.1607,232.4959,55.3350,312.1628,0,U,52094,999,574,.26760941E-2,.71178E-3,0
STARLINK-3701,2022-029H,2026-07-15T09:32:09.470112,15.35381936,.00010493,53.1614,231.5682,64.9071,295.2041,0,U,52095,999,23999,-.13436392E-4,-.849E-5,0
STARLINK-3717,2022-029J,2026-07-15T22:00:01.999584,15.33515277,.00011584,53.1598,221.0125,84.6779,141.3064,0,U,52096,999,574,.1754766E-2,.57721E-3,0
STARLINK-3665,2022-029L,2026-07-15T22:00:01.999584,15.19575474,.00017762,53.1582,232.9073,63.2388,132.0081,0,U,52098,999,570,.31294517E-2,.6772E-3,0
STARLINK-3702,2022-029N,2026-07-15T14:10:43.674528,15.35393214,.00011716,53.1607,230.6845,82.7976,277.3160,0,U,52100,999,24002,.62465298E-4,.1799E-4,0
STARLINK-3703,2022-029P,2026-07-15T22:00:01.999584,15.21061208,.00018071,53.1587,233.0256,70.4050,143.2110,0,U,52101,999,580,.30683108E-2,.69353E-3,0
STARLINK-3709,2022-029Q,2026-07-15T09:55:56.345376,15.33550693,.00011857,53.1609,223.0924,87.2633,272.8505,0,U,52102,999,24010,.22326889E-4,.362E-5,0
STARLINK-3705,2022-029R,2026-07-15T10:40:50.192832,15.35413581,.00018356,53.1622,222.8626,41.7802,318.3341,0,U,52103,999,24010,-.4837489E-4,-.2069E-4,0
STARLINK-3706,2022-029T,2026-07-15T22:00:01.999584,15.35375287,.00010258,53.1585,220.7746,84.9713,338.5613,0,U,52105,999,579,.13897419E-2,.48369E-3,0
STARLINK-3670,2022-029U,2026-07-15T13:24:44.938944,15.34388838,.0001083,53.1591,230.6035,76.9410,283.1713,0,U,52106,999,24000,.25288E-4,.478E-5,0
STARLINK-3658,2022-029V,2026-07-15T22:00:01.999584,15.35054091,.00008854,53.1596,220.9503,87.1266,272.6804,0,U,52107,999,579,.27698704E-2,.96408E-3,0
STARLINK-3698,2022-029W,2026-07-15T18:22:20.927136,15.33552490,.00011624,53.1607,221.3509,70.5312,289.5816,0,U,52108,999,24015,.35154632E-4,.784E-5,0
STARLINK-3687,2022-029Y,2026-07-15T18:27:18.428256,15.33543120,.00010551,53.1594,221.4104,82.9562,277.1560,0,U,52110,999,24015,.80350493E-4,.227E-4,0
STARLINK-3708,2022-029Z,2026-07-15T22:00:01.999584,15.35374502,.00010516,53.1583,220.7250,93.2743,79.8120,0,U,52111,999,574,.12554973E-2,.43631E-3,0
STARLINK-3734,2022-029AA,2026-07-15T22:00:01.999584,15.63103491,.00010124,53.2175,200.3074,79.5382,171.8203,0,U,52112,999,592,-.795232E-2,-.679851E-2,0
STARLINK-3736,2022-029AB,2026-07-15T07:30:55.086048,15.33559727,.00014078,53.1594,223.0775,81.9350,278.1812,0,U,52113,999,24009,.94974399E-4,.2753E-4,0
STARLINK-3737,2022-029AC,2026-07-15T08:25:08.886720,15.33549381,.00009903,53.1608,223.1862,60.2193,299.8907,0,U,52114,999,24009,.68909306E-4,.1894E-4,0
STARLINK-3685,2022-029AD,2026-07-15T10:29:55.319712,15.35400829,.00011144,53.1579,221.1022,71.8032,288.3092,0,U,52115,999,24013,.12021931E-3,.3815E-4,0
STARLINK-3735,2022-029AE,2026-07-15T09:32:30.654528,15.33549195,.00013936,53.1610,222.8487,80.6225,279.4934,0,U,52116,999,24010,.29708923E-4,.604E-5,0
STARLINK-3738,2022-029AF,2026-07-15T14:06:13.331520,15.33541882,.00012139,53.1608,222.0999,80.4920,279.6220,0,U,52117,999,24014,.6938027E-5,-.145E-5,0
STARLINK-3743,2022-029AG,2026-07-15T09:50:32.551872,15.34396393,.00009489,53.1598,222.9998,75.2258,284.8849,0,U,52118,999,24010,.12140466E-3,.3727E-4,0
STARLINK-3558,2022-029AH,2026-07-15T09:03:46.499328,15.35398525,.00008266,53.1598,221.5973,69.9139,290.1953,0,U,52119,999,24012,.8260906E-5,-.92E-6,0
STARLINK-3534,2022-029AJ,2026-07-15T13:21:35.576928,15.34388184,.0001367,53.1608,220.4627,55.4778,304.6353,0,U,52120,999,24016,.27967E-4,.568E-5,0
STARLINK-3678,2022-029AK,2026-07-15T08:17:31.497216,15.08832625,.00010386,53.1584,215.7847,77.3052,282.8055,0,U,52121,999,24019,-.21722689E-4,-.633E-5,0
STARLINK-3726,2022-029AL,2026-07-15T22:00:01.999584,15.33527651,.00013086,53.1599,220.7760,82.2257,206.5505,0,U,52122,999,569,.14855427E-2,.48769E-3,0
STARLINK-3725,2022-029AM,2026-07-15T12:27:56.484000,15.08836212,.0001075,53.1598,214.8250,76.9621,283.1490,0,U,52123,999,24023,.57814E-4,.632E-5,0
STARLINK-3727,2022-029AP,2026-07-15T08:01:38.284032,15.08832067,.00010008,53.1592,215.8339,76.8362,283.2741,0,U,52125,999,24020,.22150144E-4,.65E-6,0
STARLINK-3732,2022-029AQ,2026-07-15T12:58:23.005056,15.08836153,.0001102,53.1591,214.9072,75.9596,284.1517,0,U,52126,999,24022,.14089E-4,-.64E-6,0
STARLINK-3715,2022-029AR,2026-07-15T07:56:21.626304,15.08700518,.00012783,53.1591,215.8514,87.7326,272.3812,0,U,52127,999,24019,.15814609E-2,.24875E-3,0
STARLINK-3661,2022-029AT,2026-07-15T12:31:53.092128,15.08834161,.0001219,53.1591,214.9913,64.3293,295.7824,0,U,52129,999,24023,.19322E-4,.2E-6,0
STARLINK-3711,2022-029AV,2026-07-15T12:37:27.956064,15.19773860,.0001418,53.2134,206.2451,338.9972,21.0967,0,U,52131,999,24036,.66773E-3,.14172E-3,0
STARLINK-3718,2022-029AW,2026-07-15T12:37:12.742752,15.08831017,.0001177,53.1595,214.9734,85.6378,274.4748,0,U,52132,999,24023,.34649E-4,.263E-5,0
STARLINK-3707,2022-029AX,2026-07-15T10:40:36.449184,15.08833883,.00009771,53.1600,215.3370,72.0180,288.0917,0,U,52133,999,24022,.7385255E-5,-.17E-5,0
STARLINK-3721,2022-029AY,2026-07-15T07:35:09.634272,15.08827931,.0001549,53.1592,215.9172,66.7361,293.3793,0,U,52134,999,24020,.33341481E-4,.242E-5,0
STARLINK-3720,2022-029BA,2026-07-15T10:35:19.287744,15.08826948,.0001006,53.1597,215.3533,57.2838,302.8250,0,U,52136,999,24022,.35757797E-4,.281E-5,0
STARLINK-3733,2022-029BB,2026-07-15T18:16:20.525952,15.08828191,.00008505,53.1587,213.9140,76.9535,283.1551,0,U,52137,999,24027,-.9661154E-5,-.441E-5,0
STARLINK-3723,2022-029BC,2026-07-15T08:54:37.885248,15.08829591,.00014813,53.1591,215.6694,90.2421,269.8741,0,U,52138,999,24021,.3783564E-4,.314E-5,0
STARLINK-3730,2022-029BD,2026-07-15T22:00:01.999584,15.35380903,.00011577,53.1585,220.6973,84.4519,322.6034,0,U,52139,999,554,.14328437E-2,.499E-3,0
STARLINK-3682,2022-029BE,2026-07-15T10:14:06.616608,15.08833070,.00009395,53.1586,215.4193,85.4802,274.6296,0,U,52140,999,24022,.7148928E-4,.85E-5,0
STARLINK-3761,2022-041B,2026-07-15T11:44:11.507712,15.08818191,.00013118,53.1588,255.0908,78.0453,282.0685,0,U,52262,999,23365,.49240114E-4,.495E-5,0
STARLINK-3786,2022-041C,2026-07-15T10:14:07.611936,15.08829347,.00011905,53.1592,255.4231,86.0570,274.0558,0,U,52263,999,23364,.49896956E-4,.506E-5,0
STARLINK-3795,2022-041D,2026-07-15T10:43:51.797856,15.34390243,.00011467,53.1599,251.4243,83.0215,277.0918,0,U,52264,999,23370,.35318997E-4,.817E-5,0
STARLINK-3740,2022-041E,2026-07-15T22:00:01.999584,15.32930575,.00017516,53.1593,251.3784,55.7434,17.7011,0,U,52265,999,579,.26566715E-2,.86307E-3,0
STARLINK-3739,2022-041F,2026-07-15T15:41:28.232736,15.10179246,.00020488,53.2130,254.4178,28.6386,331.4719,0,U,52266,999,23368,.54574688E-3,.8731E-4,0
STARLINK-3748,2022-041G,2026-07-15T22:00:01.999584,15.31553994,.00003313,53.1588,251.6860,171.7560,145.7709,0,U,52267,999,579,.24763215E-2,.76922E-3,0
STARLINK-3746,2022-041H,2026-07-15T22:00:01.999584,15.35396446,.00011998,53.1590,250.8146,84.6172,18.5808,0,U,52268,999,574,.36796918E-3,.12475E-3,0
STARLINK-3791,2022-041J,2026-07-15T11:17:42.000864,15.08831941,.00010078,53.1581,255.2225,83.7477,276.3630,0,U,52269,999,23365,.35190789E-4,.272E-5,0
